ADRAS-J                 
1 58992U 24034A   24160.53778963  .00006202  00000+0  57722-3 0  9992
2 58992  98.2117 133.1676 0045781  78.0669 282.5677 14.93894309 16577
